[{"OBJECT_NAME":"ONEWEB-0035","OBJECT_ID":"2020-008N","EPOCH":"2026-01-08T04:34:56.889408","MEAN_MOTION":13.10374251,"ECCENTRICITY":0.0001652,"INCLINATION":87.878,"RA_OF_ASC_NODE":68.179,"ARG_OF_PERICENTER":101.4104,"MEAN_ANOMALY":258.7209,"EPHEMERIS_TYPE":0,"CLASSIFICATION_TYPE":"U","NORAD_CAT_ID":45143,"ELEMENT_SET_NO":999,"REV_AT_EPOCH":28698,"BSTAR":-0.0016985033,"MEAN_MOTION_DOT":-5.8e-6,"MEAN_MOTION_DDOT":0},{"OBJECT_NAME":"ONEWEB-0036","OBJECT_ID":"2020-008P","EPOCH":"2026-01-08T04:20:36.223584","MEAN_MOTION":13.10372749,"ECCENTRICITY":0.00020737,"INCLINATION":87.8786,"RA_OF_ASC_NODE":68.1416,"ARG_OF_PERICENTER":101.0351,"MEAN_ANOMALY":259.101,"EPHEMERIS_TYPE":0,"CLASSIFICATION_TYPE":"U","NORAD_CAT_ID":45144,"ELEMENT_SET_NO":999,"REV_AT_EPOCH":28741,"BSTAR":-0.0014483373,"MEAN_MOTION_DOT":-4.93e-6,"MEAN_MOTION_DDOT":0},{"OBJECT_NAME":"ONEWEB-0038","OBJECT_ID":"2020-008Q","EPOCH":"2026-01-08T04:11:20.981760","MEAN_MOTION":13.11419051,"ECCENTRICITY":0.00019725,"INCLINATION":87.8836,"RA_OF_ASC_NODE":52.9198,"ARG_OF_PERICENTER":43.6387,"MEAN_ANOMALY":316.4897,"EPHEMERIS_TYPE":0,"CLASSIFICATION_TYPE":"U","NORAD_CAT_ID":45145,"ELEMENT_SET_NO":999,"REV_AT_EPOCH":28935,"BSTAR":0.001047043,"MEAN_MOTION_DOT":3.84e-6,"MEAN_MOTION_DDOT":0},{"OBJECT_NAME":"ONEWEB-0039","OBJECT_ID":"2020-008R","EPOCH":"2026-01-08T03:55:31.820736","MEAN_MOTION":13.10370789,"ECCENTRICITY":0.00022814,"INCLINATION":87.8785,"RA_OF_ASC_NODE":68.1619,"ARG_OF_PERICENTER":93.6188,"MEAN_ANOMALY":266.52,"EPHEMERIS_TYPE":0,"CLASSIFICATION_TYPE":"U","NORAD_CAT_ID":45146,"ELEMENT_SET_NO":999,"REV_AT_EPOCH":28720,"BSTAR":0.00083818497,"MEAN_MOTION_DOT":3.05e-6,"MEAN_MOTION_DDOT":0},{"OBJECT_NAME":"ONEWEB-0040","OBJECT_ID":"2020-008S","EPOCH":"2026-01-08T05:35:56.199840","MEAN_MOTION":13.10372335,"ECCENTRICITY":0.00017768,"INCLINATION":87.8777,"RA_OF_ASC_NODE":68.1707,"ARG_OF_PERICENTER":97.8845,"MEAN_ANOMALY":262.2484,"EPHEMERIS_TYPE":0,"CLASSIFICATION_TYPE":"U","NORAD_CAT_ID":45147,"ELEMENT_SET_NO":999,"REV_AT_EPOCH":28691,"BSTAR":0.0016241652,"MEAN_MOTION_DOT":5.8e-6,"MEAN_MOTION_DDOT":0},{"OBJECT_NAME":"ONEWEB-0043","OBJECT_ID":"2020-008U","EPOCH":"2026-01-08T03:48:21.925440","MEAN_MOTION":13.1037231,"ECCENTRICITY":0.00023378,"INCLINATION":87.8778,"RA_OF_ASC_NODE":68.1671,"ARG_OF_PERICENTER":93.9318,"MEAN_ANOMALY":266.2076,"EPHEMERIS_TYPE":0,"CLASSIFICATION_TYPE":"U","NORAD_CAT_ID":45149,"ELEMENT_SET_NO":999,"REV_AT_EPOCH":28722,"BSTAR":0.0013716205,"MEAN_MOTION_DOT":4.91e-6,"MEAN_MOTION_DDOT":0},{"OBJECT_NAME":"ONEWEB-0044","OBJECT_ID":"2020-008V","EPOCH":"2026-01-08T04:28:58.312992","MEAN_MOTION":13.1037303,"ECCENTRICITY":0.00020277,"INCLINATION":87.8786,"RA_OF_ASC_NODE":68.1537,"ARG_OF_PERICENTER":99.7038,"MEAN_ANOMALY":260.4318,"EPHEMERIS_TYPE":0,"CLASSIFICATION_TYPE":"U","NORAD_CAT_ID":45150,"ELEMENT_SET_NO":999,"REV_AT_EPOCH":28752,"BSTAR":-0.0018869239,"MEAN_MOTION_DOT":-6.46e-6,"MEAN_MOTION_DDOT":0},{"OBJECT_NAME":"ONEWEB-0045","OBJECT_ID":"2020-008W","EPOCH":"2026-01-08T04:03:48.317472","MEAN_MOTION":13.11421968,"ECCENTRICITY":0.00018588,"INCLINATION":87.8841,"RA_OF_ASC_NODE":52.9062,"ARG_OF_PERICENTER":94.2703,"MEAN_ANOMALY":265.8637,"EPHEMERIS_TYPE":0,"CLASSIFICATION_TYPE":"U","NORAD_CAT_ID":45151,"ELEMENT_SET_NO":999,"REV_AT_EPOCH":28943,"BSTAR":0.0005998135,"MEAN_MOTION_DOT":2.25e-6,"MEAN_MOTION_DDOT":0},{"OBJECT_NAME":"ONEWEB-0047","OBJECT_ID":"2020-008X","EPOCH":"2026-01-08T04:19:24.509856","MEAN_MOTION":13.10371133,"ECCENTRICITY":0.00018851,"INCLINATION":87.8776,"RA_OF_ASC_NODE":68.1632,"ARG_OF_PERICENTER":100.1248,"MEAN_ANOMALY":260.0092,"EPHEMERIS_TYPE":0,"CLASSIFICATION_TYPE":"U","NORAD_CAT_ID":45152,"ELEMENT_SET_NO":999,"REV_AT_EPOCH":28724,"BSTAR":-0.0014377314,"MEAN_MOTION_DOT":-4.89e-6,"MEAN_MOTION_DDOT":0},{"OBJECT_NAME":"ONEWEB-0048","OBJECT_ID":"2020-008Y","EPOCH":"2026-01-08T04:12:13.829184","MEAN_MOTION":13.10369641,"ECCENTRICITY":0.00017072,"INCLINATION":87.8773,"RA_OF_ASC_NODE":68.1918,"ARG_OF_PERICENTER":100.9809,"MEAN_ANOMALY":259.151,"EPHEMERIS_TYPE":0,"CLASSIFICATION_TYPE":"U","NORAD_CAT_ID":45153,"ELEMENT_SET_NO":999,"REV_AT_EPOCH":28685,"BSTAR":-0.000821694,"MEAN_MOTION_DOT":-2.74e-6,"MEAN_MOTION_DDOT":0},{"OBJECT_NAME":"ONEWEB-0049","OBJECT_ID":"2020-008Z","EPOCH":"2026-01-08T04:16:48.884448","MEAN_MOTION":13.10370759,"ECCENTRICITY":0.00021222,"INCLINATION":87.8775,"RA_OF_ASC_NODE":68.1796,"ARG_OF_PERICENTER":109.6259,"MEAN_ANOMALY":250.5098,"EPHEMERIS_TYPE":0,"CLASSIFICATION_TYPE":"U","NORAD_CAT_ID":45154,"ELEMENT_SET_NO":999,"REV_AT_EPOCH":28707,"BSTAR":-0.001532956,"MEAN_MOTION_DOT":-5.22e-6,"MEAN_MOTION_DDOT":0},{"OBJECT_NAME":"ONEWEB-0051","OBJECT_ID":"2020-008AA","EPOCH":"2026-01-08T04:01:22.662624","MEAN_MOTION":13.11419645,"ECCENTRICITY":0.00017975,"INCLINATION":87.8826,"RA_OF_ASC_NODE":52.9238,"ARG_OF_PERICENTER":97.415,"MEAN_ANOMALY":262.7182,"EPHEMERIS_TYPE":0,"CLASSIFICATION_TYPE":"U","NORAD_CAT_ID":45155,"ELEMENT_SET_NO":999,"REV_AT_EPOCH":29011,"BSTAR":0.00030813458,"MEAN_MOTION_DOT":1.22e-6,"MEAN_MOTION_DDOT":0},{"OBJECT_NAME":"ONEWEB-0052","OBJECT_ID":"2020-008AB","EPOCH":"2026-01-08T04:08:39.797376","MEAN_MOTION":13.10370789,"ECCENTRICITY":0.0002203,"INCLINATION":87.8784,"RA_OF_ASC_NODE":68.1438,"ARG_OF_PERICENTER":109.3113,"MEAN_ANOMALY":250.8253,"EPHEMERIS_TYPE":0,"CLASSIFICATION_TYPE":"U","NORAD_CAT_ID":45156,"ELEMENT_SET_NO":999,"REV_AT_EPOCH":28698,"BSTAR":-0.00064936433,"MEAN_MOTION_DOT":-2.14e-6,"MEAN_MOTION_DDOT":0},{"OBJECT_NAME":"ONEWEB-0053","OBJECT_ID":"2020-008AC","EPOCH":"2026-01-08T03:43:35.097312","MEAN_MOTION":13.10372367,"ECCENTRICITY":0.00019252,"INCLINATION":87.8778,"RA_OF_ASC_NODE":68.1914,"ARG_OF_PERICENTER":91.1787,"MEAN_ANOMALY":268.9561,"EPHEMERIS_TYPE":0,"CLASSIFICATION_TYPE":"U","NORAD_CAT_ID":45157,"ELEMENT_SET_NO":999,"REV_AT_EPOCH":28695,"BSTAR":0.0017525169,"MEAN_MOTION_DOT":6.24e-6,"MEAN_MOTION_DDOT":0},{"OBJECT_NAME":"ONEWEB-0054","OBJECT_ID":"2020-008AD","EPOCH":"2026-01-08T04:33:44.868960","MEAN_MOTION":13.10374028,"ECCENTRICITY":0.0001812,"INCLINATION":87.8788,"RA_OF_ASC_NODE":68.1566,"ARG_OF_PERICENTER":103.5371,"MEAN_ANOMALY":256.5958,"EPHEMERIS_TYPE":0,"CLASSIFICATION_TYPE":"U","NORAD_CAT_ID":45158,"ELEMENT_SET_NO":999,"REV_AT_EPOCH":28707,"BSTAR":-0.0016204951,"MEAN_MOTION_DOT":-5.53e-6,"MEAN_MOTION_DDOT":0},{"OBJECT_NAME":"ONEWEB-0056","OBJECT_ID":"2020-008AE","EPOCH":"2026-01-08T04:06:16.223904","MEAN_MOTION":13.10372525,"ECCENTRICITY":0.00018195,"INCLINATION":87.8782,"RA_OF_ASC_NODE":68.1597,"ARG_OF_PERICENTER":107.7014,"MEAN_ANOMALY":252.4312,"EPHEMERIS_TYPE":0,"CLASSIFICATION_TYPE":"U","NORAD_CAT_ID":45159,"ELEMENT_SET_NO":999,"REV_AT_EPOCH":28722,"BSTAR":0.00032346127,"MEAN_MOTION_DOT":1.26e-6,"MEAN_MOTION_DDOT":0},{"OBJECT_NAME":"ONEWEB-0057","OBJECT_ID":"2020-008AF","EPOCH":"2026-01-08T04:17:13.027200","MEAN_MOTION":13.10370663,"ECCENTRICITY":0.00020115,"INCLINATION":87.8779,"RA_OF_ASC_NODE":68.1706,"ARG_OF_PERICENTER":101.183,"MEAN_ANOMALY":258.9524,"EPHEMERIS_TYPE":0,"CLASSIFICATION_TYPE":"U","NORAD_CAT_ID":45160,"ELEMENT_SET_NO":999,"REV_AT_EPOCH":28739,"BSTAR":-0.00126216,"MEAN_MOTION_DOT":-4.28e-6,"MEAN_MOTION_DDOT":0}]
